{
  "type": "FeatureCollection",
  "features": [
    {
      "type": "Feature",
      "properties": {
        "norad_id": 66603,
        "name": "STARLINK-36048",
        "group": "last-30-days",
        "lat": -13.374656460609653,
        "lon": -125.32055465748637,
        "alt_km": 337.8359213367921,
        "timestamp": "2025-12-03T04:52:28.421801+00:00",
        "meta_object_name": "STARLINK-36048",
        "meta_object_id": "2025-270R",
        "meta_epoch": "2025-12-02T20:00:03.000384",
        "meta_mean_motion": 15.79186109,
        "meta_eccentricity": 0.0001631,
        "meta_inclination": 42.9989,
        "meta_ra_of_asc_node": 251.7182,
        "meta_arg_of_pericenter": 266.0848,
        "meta_mean_anomaly": 130.5322,
        "meta_ephemeris_type": 0,
        "meta_classification_type": "U",
        "meta_norad_cat_id": 66603,
        "meta_element_set_no": 999,
        "meta_rev_at_epoch": 271,
        "meta_bstar": -0.010787,
        "meta_mean_motion_dot": -0.01757484,
        "meta_mean_motion_ddot": 0,
        "tle_line1": "1 66603U 25270R   25336.83336806 -.01757484  00000+0 -10787-1 0  9994",
        "tle_line2": "2 66603  42.9989 251.7182 0001631 266.0848 130.5322 15.79186109  2718"
      },
      "geometry": {
        "type": "Point",
        "coordinates": [
          -125.32055465748637,
          -13.374656460609653
        ]
      }
    },
    {
      "type": "Feature",
      "properties": {
        "norad_id": 66604,
        "name": "STARLINK-35977",
        "group": "last-30-days",
        "lat": -12.118070251722168,
        "lon": -123.86378484241192,
        "alt_km": 337.81835569614304,
        "timestamp": "2025-12-03T04:52:28.421811+00:00",
        "meta_object_name": "STARLINK-35977",
        "meta_object_id": "2025-270S",
        "meta_epoch": "2025-12-02T20:00:03.000384",
        "meta_mean_motion": 15.79201569,
        "meta_eccentricity": 0.0001683,
        "meta_inclination": 42.9989,
        "meta_ra_of_asc_node": 251.7136,
        "meta_arg_of_pericenter": 261.9595,
        "meta_mean_anomaly": 136.5404,
        "meta_ephemeris_type": 0,
        "meta_classification_type": "U",
        "meta_norad_cat_id": 66604,
        "meta_element_set_no": 999,
        "meta_rev_at_epoch": 280,
        "meta_bstar": -0.010823,
        "meta_mean_motion_dot": -0.01763871,
        "meta_mean_motion_ddot": 0,
        "tle_line1": "1 66604U 25270S   25336.83336806 -.01763871  00000+0 -10823-1 0  9993",
        "tle_line2": "2 66604  42.9989 251.7136 0001683 261.9595 136.5404 15.79201569  2803"
      },
      "geometry": {
        "type": "Point",
        "coordinates": [
          -123.86378484241192,
          -12.118070251722168
        ]
      }
    },
    {
      "type": "Feature",
      "properties": {
        "norad_id": 66605,
        "name": "STARLINK-36052",
        "group": "last-30-days",
        "lat": -10.844341606868946,
        "lon": -122.41000327450593,
        "alt_km": 337.5326359369592,
        "timestamp": "2025-12-03T04:52:28.421821+00:00",
        "meta_object_name": "STARLINK-36052",
        "meta_object_id": "2025-270T",
        "meta_epoch": "2025-12-02T20:00:03.000384",
        "meta_mean_motion": 15.79202412,
        "meta_eccentricity": 0.0001634,
        "meta_inclination": 42.999,
        "meta_ra_of_asc_node": 251.7088,
        "meta_arg_of_pericenter": 269.4157,
        "meta_mean_anomaly": 130.9973,
        "meta_ephemeris_type": 0,
        "meta_classification_type": "U",
        "meta_norad_cat_id": 66605,
        "meta_element_set_no": 999,
        "meta_rev_at_epoch": 280,
        "meta_bstar": -0.010798,
        "meta_mean_motion_dot": -0.01760326,
        "meta_mean_motion_ddot": 0,
        "tle_line1": "1 66605U 25270T   25336.83336806 -.01760326  00000+0 -10798-1 0  9997",
        "tle_line2": "2 66605  42.9990 251.7088 0001634 269.4157 130.9973 15.79202412  2802"
      },
      "geometry": {
        "type": "Point",
        "coordinates": [
          -122.41000327450593,
          -10.844341606868946
        ]
      }
    },
    {
      "type": "Feature",
      "properties": {
        "norad_id": 66606,
        "name": "STARLINK-36063",
        "group": "last-30-days",
        "lat": -8.152776589433302,
        "lon": -119.40066760334807,
        "alt_km": 337.66004710455036,
        "timestamp": "2025-12-03T04:52:28.421833+00:00",
        "meta_object_name": "STARLINK-36063",
        "meta_object_id": "2025-270U",
        "meta_epoch": "2025-12-02T20:00:03.000384",
        "meta_mean_motion": 15.7917738,
        "meta_eccentricity": 0.0001802,
        "meta_inclination": 42.9989,
        "meta_ra_of_asc_node": 251.6985,
        "meta_arg_of_pericenter": 261.9275,
        "meta_mean_anomaly": 142.5506,
        "meta_ephemeris_type": 0,
        "meta_classification_type": "U",
        "meta_norad_cat_id": 66606,
        "meta_element_set_no": 999,
        "meta_rev_at_epoch": 280,
        "meta_bstar": -0.011035,
        "meta_mean_motion_dot": -0.01792489,
        "meta_mean_motion_ddot": 0,
        "tle_line1": "1 66606U 25270U   25336.83336806 -.01792489  00000+0 -11035-1 0  9998",
        "tle_line2": "2 66606  42.9989 251.6985 0001802 261.9275 142.5506 15.79177380  2807"
      },
      "geometry": {
        "type": "Point",
        "coordinates": [
          -119.40066760334807,
          -8.152776589433302
        ]
      }
    },
    {
      "type": "Feature",
      "properties": {
        "norad_id": 66607,
        "name": "STARLINK-35993",
        "group": "last-30-days",
        "lat": -9.453491127966489,
        "lon": -120.84522212524709,
        "alt_km": 337.80068704892983,
        "timestamp": "2025-12-03T04:52:28.421843+00:00",
        "meta_object_name": "STARLINK-35993",
        "meta_object_id": "2025-270V",
        "meta_epoch": "2025-12-02T20:00:03.000384",
        "meta_mean_motion": 15.79177224,
        "meta_eccentricity": 0.0001496,
        "meta_inclination": 42.9992,
        "meta_ra_of_asc_node": 251.7035,
        "meta_arg_of_pericenter": 261.5245,
        "meta_mean_anomaly": 141.0216,
        "meta_ephemeris_type": 0,
        "meta_classification_type": "U",
        "meta_norad_cat_id": 66607,
        "meta_element_set_no": 999,
        "meta_rev_at_epoch": 271,
        "meta_bstar": -0.011029,
        "meta_mean_motion_dot": -0.01791343,
        "meta_mean_motion_ddot": 0,
        "tle_line1": "1 66607U 25270V   25336.83336806 -.01791343  00000+0 -11029-1 0  9990",
        "tle_line2": "2 66607  42.9992 251.7035 0001496 261.5245 141.0216 15.79177224  2710"
      },
      "geometry": {
        "type": "Point",
        "coordinates": [
          -120.84522212524709,
          -9.453491127966489
        ]
      }
    },
    {
      "type": "Feature",
      "properties": {
        "norad_id": 66608,
        "name": "STARLINK-36036",
        "group": "last-30-days",
        "lat": -6.850145847701717,
        "lon": -117.96852361284427,
        "alt_km": 337.5780772850503,
        "timestamp": "2025-12-03T04:52:28.421853+00:00",
        "meta_object_name": "STARLINK-36036",
        "meta_object_id": "2025-270W",
        "meta_epoch": "2025-12-02T20:00:03.000384",
        "meta_mean_motion": 15.79179617,
        "meta_eccentricity": 0.0001583,
        "meta_inclination": 42.9989,
        "meta_ra_of_asc_node": 251.6939,
        "meta_arg_of_pericenter": 262.0077,
        "meta_mean_anomaly": 144.4034,
        "meta_ephemeris_type": 0,
        "meta_classification_type": "U",
        "meta_norad_cat_id": 66608,
        "meta_element_set_no": 999,
        "meta_rev_at_epoch": 265,
        "meta_bstar": -0.011067,
        "meta_mean_motion_dot": -0.01797036,
        "meta_mean_motion_ddot": 0,
        "tle_line1": "1 66608U 25270W   25336.83336806 -.01797036  00000+0 -11067-1 0  9998",
        "tle_line2": "2 66608  42.9989 251.6939 0001583 262.0077 144.4034 15.79179617  2651"
      },
      "geometry": {
        "type": "Point",
        "coordinates": [
          -117.96852361284427,
          -6.850145847701717
        ]
      }
    },
    {
      "type": "Feature",
      "properties": {
        "norad_id": 66609,
        "name": "STARLINK-36034",
        "group": "last-30-days",
        "lat": -5.54942780197213,
        "lon": -116.55113506062935,
        "alt_km": 337.33336118150237,
        "timestamp": "2025-12-03T04:52:28.421863+00:00",
        "meta_object_name": "STARLINK-36034",
        "meta_object_id": "2025-270X",
        "meta_epoch": "2025-12-02T20:00:03.000384",
        "meta_mean_motion": 15.79198042,
        "meta_eccentricity": 0.0001535,
        "meta_inclination": 42.999,
        "meta_ra_of_asc_node": 251.6891,
        "meta_arg_of_pericenter": 267.1047,
        "meta_mean_anomaly": 141.2139,
        "meta_ephemeris_type": 0,
        "meta_classification_type": "U",
        "meta_norad_cat_id": 66609,
        "meta_element_set_no": 999,
        "meta_rev_at_epoch": 265,
        "meta_bstar": -0.011173,
        "meta_mean_motion_dot": -0.01813468,
        "meta_mean_motion_ddot": 0,
        "tle_line1": "1 66609U 25270X   25336.83336806 -.01813468  00000+0 -11173-1 0  9995",
        "tle_line2": "2 66609  42.9990 251.6891 0001535 267.1047 141.2139 15.79198042  2655"
      },
      "geometry": {
        "type": "Point",
        "coordinates": [
          -116.55113506062935,
          -5.54942780197213
        ]
      }
    }
  ]
}